{"type": "FeatureCollection", "features": [ {"type": "Feature", "properties": {"norad_id": 33678, "name": "FENGYUN 1C DEB", "group": "fengyun-1c-debris", "lat": -50.06967419339285, "lon": -149.49824531109437, "alt_km": 622.7441316906406, "timestamp": "2025-12-02T15:49:07.477249+00:00", "meta": {"OBJECT_NAME": "FENGYUN 1C DEB", "OBJECT_ID": "1999-025DFP", "EPOCH": "2025-12-02T03:07:23.149920", "MEAN_MOTION": 14.47227945, "ECCENTRICITY": 0.02047899, "INCLINATION": 99.0446, "RA_OF_ASC_NODE": 40.9067, "ARG_OF_PERICENTER": 268.4727, "MEAN_ANOMALY": 89.2998, "EPHEMERIS_TYPE": 0, "CLASSIFICATION_TYPE": "U", "NORAD_CAT_ID": 33678, "ELEMENT_SET_NO": 999, "REV_AT_EPOCH": 94942, "BSTAR": 0.00079647457, "MEAN_MOTION_DOT": 3.725e-05, "MEAN_MOTION_DDOT": 0}, "tle": {"line1": "1 33678U 99025DFP 25336.13012905  .00003725  00000+0  79647-3 0  9994", "line2": "2 33678  99.0446  40.9067 0204789 268.4727  89.2998 14.47227945949421"}}, "geometry": {"type": "Point", "coordinates": [-149.49824531109437, -50.06967419339285]}}, {"type": "Feature", "properties": {"norad_id": 33679, "name": "FENGYUN 1C DEB", "group": "fengyun-1c-debris", "lat": -74.94069674287387, "lon": 78.98804805719428, "alt_km": 500.5481156160731, "timestamp": "2025-12-02T15:49:07.477260+00:00", "meta": {"OBJECT_NAME": "FENGYUN 1C DEB", "OBJECT_ID": "1999-025DFQ", "EPOCH": "2025-11-29T03:24:33.677280", "MEAN_MOTION": 15.01717103, "ECCENTRICITY": 0.01512375, "INCLINATION": 99.3493, "RA_OF_ASC_NODE": 36.9971, "ARG_OF_PERICENTER": 343.5245, "MEAN_ANOMALY": 16.1087, "EPHEMERIS_TYPE": 0, "CLASSIFICATION_TYPE": "U", "NORAD_CAT_ID": 33679, "ELEMENT_SET_NO": 999, "REV_AT_EPOCH": 93919, "BSTAR": 0.0014003146, "MEAN_MOTION_DOT": 0.0002329, "MEAN_MOTION_DDOT": 0}, "tle": {"line1": "1 33679U 99025DFQ 25333.14205645  .00023290  00000+0  14003-2 0  9991", "line2": "2 33679  99.3493  36.9971 0151237 343.5245  16.1087 15.01717103939197"}}, "geometry": {"type": "Point", "coordinates": [78.98804805719428, -74.94069674287387]}}, {"type": "Feature", "properties": {"norad_id": 33682, "name": "FENGYUN 1C DEB", "group": "fengyun-1c-debris", "lat": -48.410970237613896, "lon": 33.26237629353796, "alt_km": 829.875205355138, "timestamp": "2025-12-02T15:49:07.477270+00:00", "meta": {"OBJECT_NAME": "FENGYUN 1C DEB", "OBJECT_ID": "1999-025DFT", "EPOCH": "2025-11-30T01:46:04.764000", "MEAN_MOTION": 14.2654663, "ECCENTRICITY": 0.00294458, "INCLINATION": 99.4223, "RA_OF_ASC_NODE": 19.6982, "ARG_OF_PERICENTER": 118.141, "MEAN_ANOMALY": 242.2748, "EPHEMERIS_TYPE": 0, "CLASSIFICATION_TYPE": "U", "NORAD_CAT_ID": 33682, "ELEMENT_SET_NO": 999, "REV_AT_EPOCH": 91517, "BSTAR": 0.0017024564, "MEAN_MOTION_DOT": 4.077e-05, "MEAN_MOTION_DDOT": 0}, "tle": {"line1": "1 33682U 99025DFT 25334.07366625  .00004077  00000+0  17025-2 0  9993", "line2": "2 33682  99.4223  19.6982 0029445 118.1410 242.2748 14.26546630915177"}}, "geometry": {"type": "Point", "coordinates": [33.26237629353796, -48.410970237613896]}}, {"type": "Feature", "properties": {"norad_id": 33684, "name": "FENGYUN 1C DEB", "group": "fengyun-1c-debris", "lat": 58.09292789926461, "lon": 16.197165640731953, "alt_km": 505.80153463268744, "timestamp": "2025-12-02T15:49:07.477280+00:00", "meta": {"OBJECT_NAME": "FENGYUN 1C DEB", "OBJECT_ID": "1999-025DFV", "EPOCH": "2025-12-02T02:31:14.717280", "MEAN_MOTION": 14.72784051, "ECCENTRICITY": 0.02892345, "INCLINATION": 99.0691, "RA_OF_ASC_NODE": 30.4432, "ARG_OF_PERICENTER": 13.6371, "MEAN_ANOMALY": 347.244, "EPHEMERIS_TYPE": 0, "CLASSIFICATION_TYPE": "U", "NORAD_CAT_ID": 33684, "ELEMENT_SET_NO": 999, "REV_AT_EPOCH": 92832, "BSTAR": 0.00090779692, "MEAN_MOTION_DOT": 0.00011292, "MEAN_MOTION_DDOT": 0}, "tle": {"line1": "1 33684U 99025DFV 25336.10503145  .00011292  00000+0  90780-3 0  9998", "line2": "2 33684  99.0691  30.4432 0289234  13.6371 347.2440 14.72784051928322"}}, "geometry": {"type": "Point", "coordinates": [16.197165640731953, 58.09292789926461]}}, {"type": "Feature", "properties": {"norad_id": 33687, "name": "FENGYUN 1C DEB", "group": "fengyun-1c-debris", "lat": 12.864653960492998, "lon": -21.575404927155063, "alt_km": 432.54221502654764, "timestamp": "2025-12-02T15:49:07.477291+00:00", "meta": {"OBJECT_NAME": "FENGYUN 1C DEB", "OBJECT_ID": "1999-025DFY", "EPOCH": "2025-12-02T06:16:02.710272", "MEAN_MOTION": 15.17405521, "ECCENTRICITY": 0.01195468, "INCLINATION": 98.9972, "RA_OF_ASC_NODE": 340.0261, "ARG_OF_PERICENTER": 11.3354, "MEAN_ANOMALY": 349.0524, "EPHEMERIS_TYPE": 0, "CLASSIFICATION_TYPE": "U", "NORAD_CAT_ID": 33687, "ELEMENT_SET_NO": 999, "REV_AT_EPOCH": 71349, "BSTAR": 0.0018832556, "MEAN_MOTION_DOT": 0.00045488, "MEAN_MOTION_DDOT": 0}, "tle": {"line1": "1 33687U 99025DFY 25336.26114248  .00045488  00000+0  18833-2 0  9992", "line2": "2 33687  98.9972 340.0261 0119546  11.3354 349.0524 15.17405521713494"}}, "geometry": {"type": "Point", "coordinates": [-21.575404927155063, 12.864653960492998]}}, {"type": "Feature", "properties": {"norad_id": 33688, "name": "FENGYUN 1C DEB", "group": "fengyun-1c-debris", "lat": -80.58796580396358, "lon": 160.66956112579027, "alt_km": 713.109219300256, "timestamp": "2025-12-02T15:49:07.477301+00:00", "meta": {"OBJECT_NAME": "FENGYUN 1C DEB", "OBJECT_ID": "1999-025DFZ", "EPOCH": "2025-12-02T06:15:25.398432", "MEAN_MOTION": 14.45255894, "ECCENTRICITY": 0.00531279, "INCLINATION": 99.3492, "RA_OF_ASC_NODE": 76.5882, "ARG_OF_PERICENTER": 293.1663, "MEAN_ANOMALY": 66.3934, "EPHEMERIS_TYPE": 0, "CLASSIFICATION_TYPE": "U", "NORAD_CAT_ID": 33688, "ELEMENT_SET_NO": 999, "REV_AT_EPOCH": 91330, "BSTAR": 0.0032471354, "MEAN_MOTION_DOT": 0.00011555, "MEAN_MOTION_DDOT": 0}, "tle": {"line1": "1 33688U 99025DFZ 25336.26071063  .00011555  00000+0  32471-2 0  9992", "line2": "2 33688  99.3492  76.5882 0053127 293.1663  66.3934 14.45255894913304"}}, "geometry": {"type": "Point", "coordinates": [160.66956112579027, -80.58796580396358]}}, {"type": "Feature", "properties": {"norad_id": 33689, "name": "FENGYUN 1C DEB", "group": "fengyun-1c-debris", "lat": -39.79860924561386, "lon": -9.203283693707808, "alt_km": 773.9950834138326, "timestamp": "2025-12-02T15:49:07.477312+00:00", "meta": {"OBJECT_NAME": "FENGYUN 1C DEB", "OBJECT_ID": "1999-025DGA", "EPOCH": "2025-11-29T19:02:12.805728", "MEAN_MOTION": 14.44995922, "ECCENTRICITY": 0.00478162, "INCLINATION": 99.5667, "RA_OF_ASC_NODE": 339.4956, "ARG_OF_PERICENTER": 189.1023, "MEAN_ANOMALY": 349.9963, "EPHEMERIS_TYPE": 0, "CLASSIFICATION_TYPE": "U", "NORAD_CAT_ID": 33689, "ELEMENT_SET_NO": 999, "REV_AT_EPOCH": 69343, "BSTAR": 0.0010237814, "MEAN_MOTION_DOT": 3.568e-05, "MEAN_MOTION_DDOT": 0}, "tle": {"line1": "1 33689U 99025DGA 25333.79320377  .00003568  00000+0  10238-2 0  9995", "line2": "2 33689  99.5667 339.4956 0047816 189.1023 349.9963 14.44995922693439"}}, "geometry": {"type": "Point", "coordinates": [-9.203283693707808, -39.79860924561386]}}, {"type": "Feature", "properties": {"norad_id": 33690, "name": "FENGYUN 1C DEB", "group": "fengyun-1c-debris", "lat": 81.01988273115055, "lon": -31.678887618343488, "alt_km": 692.6413740291418, "timestamp": "2025-12-02T15:49:07.477322+00:00", "meta": {"OBJECT_NAME": "FENGYUN 1C DEB", "OBJECT_ID": "1999-025DGB", "EPOCH": "2025-12-02T05:28:01.355808", "MEAN_MOTION": 14.51156207, "ECCENTRICITY": 0.00312292, "INCLINATION": 98.6122, "RA_OF_ASC_NODE": 74.3389, "ARG_OF_PERICENTER": 82.6106, "MEAN_ANOMALY": 277.8635, "EPHEMERIS_TYPE": 0, "CLASSIFICATION_TYPE": "U", "NORAD_CAT_ID": 33690, "ELEMENT_SET_NO": 999, "REV_AT_EPOCH": 93067, "BSTAR": 0.0026097829, "MEAN_MOTION_DOT": 0.00010388, "MEAN_MOTION_DDOT": 0}, "tle": {"line1": "1 33690U 99025DGB 25336.22779347  .00010388  00000+0  26098-2 0  9992", "line2": "2 33690  98.6122  74.3389 0031229  82.6106 277.8635 14.51156207930670"}}, "geometry": {"type": "Point", "coordinates": [-31.678887618343488, 81.01988273115055]}}, {"type": "Feature", "properties": {"norad_id": 33693, "name": "FENGYUN 1C DEB", "group": "fengyun-1c-debris", "lat": -26.150475744303314, "lon": 159.34840342114728, "alt_km": 894.710396145706, "timestamp": "2025-12-02T15:49:07.477332+00:00", "meta": {"OBJECT_NAME": "FENGYUN 1C DEB", "OBJECT_ID": "1999-025DGE", "EPOCH": "2025-11-29T17:53:55.917312", "MEAN_MOTION": 13.71252602, "ECCENTRICITY": 0.02264484, "INCLINATION": 99.2157, "RA_OF_ASC_NODE": 151.9788, "ARG_OF_PERICENTER": 32.8679, "MEAN_ANOMALY": 328.6323, "EPHEMERIS_TYPE": 0, "CLASSIFICATION_TYPE": "U", "NORAD_CAT_ID": 33693, "ELEMENT_SET_NO": 999, "REV_AT_EPOCH": 88053, "BSTAR": 0.0016631259, "MEAN_MOTION_DOT": 1.748e-05, "MEAN_MOTION_DDOT": 0}, "tle": {"line1": "1 33693U 99025DGE 25333.74578608  .00001748  00000+0  16631-2 0  9998", "line2": "2 33693  99.2157 151.9788 0226448  32.8679 328.6323 13.71252602880539"}}, "geometry": {"type": "Point", "coordinates": [159.34840342114728, -26.150475744303314]}}, {"type": "Feature", "properties": {"norad_id": 33698, "name": "FENGYUN 1C DEB", "group": "fengyun-1c-debris", "lat": 16.839635572783052, "lon": 118.15174081866222, "alt_km": 698.2093087839703, "timestamp": "2025-12-02T15:49:07.477342+00:00", "meta": {"OBJECT_NAME": "FENGYUN 1C DEB", "OBJECT_ID": "1999-025DGK", "EPOCH": "2025-12-02T03:30:41.976288", "MEAN_MOTION": 14.55663809, "ECCENTRICITY": 0.01372841, "INCLINATION": 99.6199, "RA_OF_ASC_NODE": 294.6189, "ARG_OF_PERICENTER": 249.5028, "MEAN_ANOMALY": 109.1385, "EPHEMERIS_TYPE": 0, "CLASSIFICATION_TYPE": "U", "NORAD_CAT_ID": 33698, "ELEMENT_SET_NO": 999, "REV_AT_EPOCH": 95482, "BSTAR": 0.00039736812, "MEAN_MOTION_DOT": 1.902e-05, "MEAN_MOTION_DDOT": 0}, "tle": {"line1": "1 33698U 99025DGK 25336.14631917  .00001902  00000+0  39737-3 0  9998", "line2": "2 33698  99.6199 294.6189 0137284 249.5028 109.1385 14.55663809954820"}}, "geometry": {"type": "Point", "coordinates": [118.15174081866222, 16.839635572783052]}}]}